{
    "links": {
        "self": "http://www.neowsapp.com/rest/v1/neo/3610175?api_key=iIulBulltgU6a56xZRHN4H3l9WmuAYTsLGpBGhQ2"
    },
    "id": "3610175",
    "neo_reference_id": "3610175",
    "name": "(2012 TF79)",
    "designation": "2012 TF79",
    "nasa_jpl_url": "http://ssd.jpl.nasa.gov/sbdb.cgi?sstr=3610175",
    "absolute_magnitude_h": 27.4,
    "estimated_diameter": {
        "kilometers": {
            "estimated_diameter_min": 0.0088014652,
            "estimated_diameter_max": 0.0196806745
        },
        "meters": {
            "estimated_diameter_min": 8.801465209,
            "estimated_diameter_max": 19.6806745089
        },
        "miles": {
            "estimated_diameter_min": 0.0054689752,
            "estimated_diameter_max": 0.0122290004
        },
        "feet": {
            "estimated_diameter_min": 28.8761991163,
            "estimated_diameter_max": 64.5691441559
        }
    },
    "is_potentially_hazardous_asteroid": false,
    "close_approach_data": [
        {
            "close_approach_date": "2012-10-19",
            "close_approach_date_full": "2012-Oct-19 04:45",
            "epoch_date_close_approach": 1350621900000,
            "relative_velocity": {
                "kilometers_per_second": "0.8047172494",
                "kilometers_per_hour": "2896.9820978755",
                "miles_per_hour": "1800.0720152049"
            },
            "miss_distance": {
                "astronomical": "0.0444257966",
                "lunar": "17.2816348774",
                "kilometers": "6646004.544413242",
                "miles": "4129635.7301450596"
            },
            "orbiting_body": "Earth"
        }
    ],
    "orbital_data": {
        "orbit_id": "14",
        "orbit_determination_date": "2017-04-06 08:48:40",
        "first_observation_date": "2012-10-08",
        "last_observation_date": "2012-11-06",
        "data_arc_in_days": 29,
        "observations_used": 59,
        "orbit_uncertainty": "5",
        "minimum_orbit_intersection": ".0317416",
        "jupiter_tisserand_invariant": "5.854",
        "epoch_osculation": "2459000.5",
        "eccentricity": ".03819171281003721",
        "semi_major_axis": "1.049803198791403",
        "inclination": "1.005509459629032",
        "ascending_node_longitude": "199.8797572395582",
        "orbital_period": "392.8803106225848",
        "perihelion_distance": "1.009709416516104",
        "perihelion_argument": "265.7305338950331",
        "aphelion_distance": "1.089896981066703",
        "perihelion_time": "2459052.751290764537",
        "mean_anomaly": "312.1216406965647",
        "mean_motion": ".9163095993014247",
        "equinox": "J2000",
        "orbit_class": {
            "orbit_class_type": "APO",
            "orbit_class_description": "Near-Earth asteroid orbits which cross the Earth’s orbit similar to that of 1862 Apollo",
            "orbit_class_range": "a (semi-major axis) > 1.0 AU; q (perihelion) < 1.017 AU"
        }
    },
    "is_sentry_object": false
}